{"type": "FeatureCollection", "features": [ {"type": "Feature", "properties": {"norad_id": 41019, "name": "GPS BIIF-11 (PRN 10)", "group": "gnss", "lat": 20.496315859254363, "lon": 52.55606737312426, "alt_km": 20445.7192449272, "timestamp": "2025-12-02T08:59:32.956801+00:00", "meta": {"OBJECT_NAME": "GPS BIIF-11 (PRN 10)", "OBJECT_ID": "2015-062A", "EPOCH": "2025-12-01T08:13:28.844544", "MEAN_MOTION": 2.00567003, "ECCENTRICITY": 0.01104814, "INCLINATION": 56.824, "RA_OF_ASC_NODE": 38.4433, "ARG_OF_PERICENTER": 229.6355, "MEAN_ANOMALY": 129.443, "EPHEMERIS_TYPE": 0, "CLASSIFICATION_TYPE": "U", "NORAD_CAT_ID": 41019, "ELEMENT_SET_NO": 999, "REV_AT_EPOCH": 7386, "BSTAR": 0, "MEAN_MOTION_DOT": -6.4e-07, "MEAN_MOTION_DDOT": 0}, "tle": {"line1": "1 41019U 15062A   25335.34269496 -.00000064  00000+0  00000+0 0  9999", "line2": "2 41019  56.8240  38.4433 0110481 229.6355 129.4430  2.00567003 73864"}}, "geometry": {"type": "Point", "coordinates": [52.55606737312426, 20.496315859254363]}}, {"type": "Feature", "properties": {"norad_id": 41028, "name": "GSAT-15 (GAGAN/PRN 139)", "group": "gnss", "lat": -0.01743266153321954, "lon": -60.13799787177072, "alt_km": 35781.51679731987, "timestamp": "2025-12-02T08:59:32.956812+00:00", "meta": {"OBJECT_NAME": "GSAT-15 (GAGAN/PRN 139)", "OBJECT_ID": "2015-065A", "EPOCH": "2025-12-01T15:58:12.726048", "MEAN_MOTION": 1.00270917, "ECCENTRICITY": 0.0003058, "INCLINATION": 0.0136, "RA_OF_ASC_NODE": 9.6854, "ARG_OF_PERICENTER": 222.141, "MEAN_ANOMALY": 172.0005, "EPHEMERIS_TYPE": 0, "CLASSIFICATION_TYPE": "U", "NORAD_CAT_ID": 41028, "ELEMENT_SET_NO": 999, "REV_AT_EPOCH": 3681, "BSTAR": 0, "MEAN_MOTION_DOT": -2.36e-06, "MEAN_MOTION_DDOT": 0}, "tle": {"line1": "1 41028U 15065A   25335.66542507 -.00000236  00000+0  00000+0 0  9995", "line2": "2 41028   0.0136   9.6854 0003058 222.1410 172.0005  1.00270917 36817"}}, "geometry": {"type": "Point", "coordinates": [-60.13799787177072, -0.01743266153321954]}}, {"type": "Feature", "properties": {"norad_id": 41174, "name": "GSAT0209 (GALILEO 12)", "group": "gnss", "lat": -55.02556146592508, "lon": 3.8349732302410877, "alt_km": 23228.65366375678, "timestamp": "2025-12-02T08:59:32.956826+00:00", "meta": {"OBJECT_NAME": "GSAT0209 (GALILEO 12)", "OBJECT_ID": "2015-079A", "EPOCH": "2025-12-01T08:38:30.213024", "MEAN_MOTION": 1.70474295, "ECCENTRICITY": 0.0002365, "INCLINATION": 55.7059, "RA_OF_ASC_NODE": 106.6934, "ARG_OF_PERICENTER": 357.6757, "MEAN_ANOMALY": 2.2921, "EPHEMERIS_TYPE": 0, "CLASSIFICATION_TYPE": "U", "NORAD_CAT_ID": 41174, "ELEMENT_SET_NO": 999, "REV_AT_EPOCH": 6140, "BSTAR": 0, "MEAN_MOTION_DOT": 4e-07, "MEAN_MOTION_DDOT": 0}, "tle": {"line1": "1 41174U 15079A   25335.36007191  .00000040  00000+0  00000+0 0  9996", "line2": "2 41174  55.7059 106.6934 0002365 357.6757   2.2921  1.70474295 61401"}}, "geometry": {"type": "Point", "coordinates": [3.8349732302410877, -55.02556146592508]}}, {"type": "Feature", "properties": {"norad_id": 41175, "name": "GSAT0208 (GALILEO 11)", "group": "gnss", "lat": 40.85015426709431, "lon": -109.50645238796263, "alt_km": 23219.67889033667, "timestamp": "2025-12-02T08:59:32.956837+00:00", "meta": {"OBJECT_NAME": "GSAT0208 (GALILEO 11)", "OBJECT_ID": "2015-079B", "EPOCH": "2025-11-30T09:46:10.644960", "MEAN_MOTION": 1.70474193, "ECCENTRICITY": 0.00018872, "INCLINATION": 55.7038, "RA_OF_ASC_NODE": 106.7167, "ARG_OF_PERICENTER": 11.7228, "MEAN_ANOMALY": 348.2564, "EPHEMERIS_TYPE": 0, "CLASSIFICATION_TYPE": "U", "NORAD_CAT_ID": 41175, "ELEMENT_SET_NO": 999, "REV_AT_EPOCH": 6180, "BSTAR": 0, "MEAN_MOTION_DOT": 4.8e-07, "MEAN_MOTION_DDOT": 0}, "tle": {"line1": "1 41175U 15079B   25334.40706765  .00000048  00000+0  00000+0 0  9992", "line2": "2 41175  55.7038 106.7167 0001887  11.7228 348.2564  1.70474193 61804"}}, "geometry": {"type": "Point", "coordinates": [-109.50645238796263, 40.85015426709431]}}, {"type": "Feature", "properties": {"norad_id": 41241, "name": "IRNSS-1E", "group": "gnss", "lat": -31.6924784907598, "lon": -44.26130620941376, "alt_km": 35755.08508121795, "timestamp": "2025-12-02T08:59:32.956848+00:00", "meta": {"OBJECT_NAME": "IRNSS-1E", "OBJECT_ID": "2016-003A", "EPOCH": "2025-12-01T16:03:27.223776", "MEAN_MOTION": 1.00278544, "ECCENTRICITY": 0.0021918, "INCLINATION": 32.8014, "RA_OF_ASC_NODE": 62.6145, "ARG_OF_PERICENTER": 186.5756, "MEAN_ANOMALY": 174.1351, "EPHEMERIS_TYPE": 0, "CLASSIFICATION_TYPE": "U", "NORAD_CAT_ID": 41241, "ELEMENT_SET_NO": 999, "REV_AT_EPOCH": 3610, "BSTAR": 0, "MEAN_MOTION_DOT": -2.97e-06, "MEAN_MOTION_DDOT": 0}, "tle": {"line1": "1 41241U 16003A   25335.66906509 -.00000297  00000+0  00000+0 0  9998", "line2": "2 41241  32.8014  62.6145 0021918 186.5756 174.1351  1.00278544 36108"}}, "geometry": {"type": "Point", "coordinates": [-44.26130620941376, -31.6924784907598]}}, {"type": "Feature", "properties": {"norad_id": 41328, "name": "GPS BIIF-12 (PRN 32)", "group": "gnss", "lat": -27.521417148300383, "lon": 76.1891804106153, "alt_km": 20152.535741422278, "timestamp": "2025-12-02T08:59:32.956860+00:00", "meta": {"OBJECT_NAME": "GPS BIIF-12 (PRN 32)", "OBJECT_ID": "2016-007A", "EPOCH": "2025-11-30T22:13:59.162016", "MEAN_MOTION": 2.00561199, "ECCENTRICITY": 0.00916, "INCLINATION": 55.3993, "RA_OF_ASC_NODE": 97.326, "ARG_OF_PERICENTER": 243.286, "MEAN_ANOMALY": 115.7578, "EPHEMERIS_TYPE": 0, "CLASSIFICATION_TYPE": "U", "NORAD_CAT_ID": 41328, "ELEMENT_SET_NO": 999, "REV_AT_EPOCH": 7186, "BSTAR": 0, "MEAN_MOTION_DOT": 2.3e-07, "MEAN_MOTION_DDOT": 0}, "tle": {"line1": "1 41328U 16007A   25334.92637919  .00000023  00000+0  00000+0 0  9998", "line2": "2 41328  55.3993  97.3260 0091600 243.2860 115.7578  2.00561199 71861"}}, "geometry": {"type": "Point", "coordinates": [76.1891804106153, -27.521417148300383]}}, {"type": "Feature", "properties": {"norad_id": 41330, "name": "COSMOS 2514 (751)", "group": "gnss", "lat": 38.18370290884991, "lon": 118.36332480383004, "alt_km": 19121.45898570658, "timestamp": "2025-12-02T08:59:32.956870+00:00", "meta": {"OBJECT_NAME": "COSMOS 2514 (751)", "OBJECT_ID": "2016-008A", "EPOCH": "2025-12-01T06:10:30.326016", "MEAN_MOTION": 2.13102518, "ECCENTRICITY": 0.0012529, "INCLINATION": 65.1403, "RA_OF_ASC_NODE": 319.7975, "ARG_OF_PERICENTER": 219.8281, "MEAN_ANOMALY": 140.091, "EPHEMERIS_TYPE": 0, "CLASSIFICATION_TYPE": "U", "NORAD_CAT_ID": 41330, "ELEMENT_SET_NO": 999, "REV_AT_EPOCH": 7640, "BSTAR": 0, "MEAN_MOTION_DOT": -2.7e-07, "MEAN_MOTION_DDOT": 0}, "tle": {"line1": "1 41330U 16008A   25335.25729544 -.00000027  00000+0  00000+0 0  9990", "line2": "2 41330  65.1403 319.7975 0012529 219.8281 140.0910  2.13102518 76408"}}, "geometry": {"type": "Point", "coordinates": [118.36332480383004, 38.18370290884991]}}, {"type": "Feature", "properties": {"norad_id": 41384, "name": "IRNSS-1F", "group": "gnss", "lat": 3.280362051924465, "lon": -121.31096285671049, "alt_km": 35716.74206429635, "timestamp": "2025-12-02T08:59:32.956883+00:00", "meta": {"OBJECT_NAME": "IRNSS-1F", "OBJECT_ID": "2016-015A", "EPOCH": "2025-12-02T01:57:08.558784", "MEAN_MOTION": 1.00267041, "ECCENTRICITY": 0.0022388, "INCLINATION": 4.8536, "RA_OF_ASC_NODE": 101.5646, "ARG_OF_PERICENTER": 179.4031, "MEAN_ANOMALY": 211.926, "EPHEMERIS_TYPE": 0, "CLASSIFICATION_TYPE": "U", "NORAD_CAT_ID": 41384, "ELEMENT_SET_NO": 999, "REV_AT_EPOCH": 3569, "BSTAR": 0, "MEAN_MOTION_DOT": 1.79e-06, "MEAN_MOTION_DDOT": 0}, "tle": {"line1": "1 41384U 16015A   25336.08134906  .00000179  00000+0  00000+0 0  9998", "line2": "2 41384   4.8536 101.5646 0022388 179.4031 211.9260  1.00267041 35694"}}, "geometry": {"type": "Point", "coordinates": [-121.31096285671049, 3.280362051924465]}}, {"type": "Feature", "properties": {"norad_id": 41434, "name": "BEIDOU-2 IGSO-6 (C13)", "group": "gnss", "lat": -58.073891295728096, "lon": -71.94856808800797, "alt_km": 35575.23616679789, "timestamp": "2025-12-02T08:59:32.956894+00:00", "meta": {"OBJECT_NAME": "BEIDOU-2 IGSO-6 (C13)", "OBJECT_ID": "2016-021A", "EPOCH": "2025-11-29T16:01:16.721760", "MEAN_MOTION": 1.00257137, "ECCENTRICITY": 0.00590915, "INCLINATION": 59.9454, "RA_OF_ASC_NODE": 40.0323, "ARG_OF_PERICENTER": 231.0312, "MEAN_ANOMALY": 130.2075, "EPHEMERIS_TYPE": 0, "CLASSIFICATION_TYPE": "U", "NORAD_CAT_ID": 41434, "ELEMENT_SET_NO": 999, "REV_AT_EPOCH": 3548, "BSTAR": 0, "MEAN_MOTION_DOT": -1.5e-06, "MEAN_MOTION_DDOT": 0}, "tle": {"line1": "1 41434U 16021A   25333.66755465 -.00000150  00000+0  00000+0 0  9991", "line2": "2 41434  59.9454  40.0323 0059091 231.0312 130.2075  1.00257137 35486"}}, "geometry": {"type": "Point", "coordinates": [-71.94856808800797, -58.073891295728096]}}, {"type": "Feature", "properties": {"norad_id": 41469, "name": "IRNSS-1G", "group": "gnss", "lat": -3.778036437802308, "lon": -24.264781191408048, "alt_km": 35792.77167122646, "timestamp": "2025-12-02T08:59:32.956927+00:00", "meta": {"OBJECT_NAME": "IRNSS-1G", "OBJECT_ID": "2016-027A", "EPOCH": "2025-12-01T22:53:51.457056", "MEAN_MOTION": 1.00266816, "ECCENTRICITY": 0.0001416, "INCLINATION": 4.7102, "RA_OF_ASC_NODE": 102.3664, "ARG_OF_PERICENTER": 16.3278, "MEAN_ANOMALY": 65.3334, "EPHEMERIS_TYPE": 0, "CLASSIFICATION_TYPE": "U", "NORAD_CAT_ID": 41469, "ELEMENT_SET_NO": 999, "REV_AT_EPOCH": 3520, "BSTAR": 0, "MEAN_MOTION_DOT": -3.13e-06, "MEAN_MOTION_DDOT": 0}, "tle": {"line1": "1 41469U 16027A   25335.95406779 -.00000313  00000+0  00000+0 0  9991", "line2": "2 41469   4.7102 102.3664 0001416  16.3278  65.3334  1.00266816 35205"}}, "geometry": {"type": "Point", "coordinates": [-24.264781191408048, -3.778036437802308]}}]}